CTC1_L_00019001-01
1 45177U 25455II  26070.40831019  .00000000  00000+0  00000-0 0  9995
2 45177  65.0000   0.0000 0000000   0.0000   0.0000 15.80155680    17
CTC1_L_00019001-02
1 45178U 26352UZ  26070.40831019  .00000000  00000+0  00000-0 0  9993
2 45178  65.0000   0.0000 0000000   0.0000  90.0000 15.80155680    17
CTC1_L_00019001-03
1 45179U 22402SK  26070.40831019  .00000000  00000+0  00000-0 0  9996
2 45179  65.0000   0.0000 0000000   0.0000 180.0000 15.80155680    18
CTC1_L_00019001-04
1 45180U 26828KD  26070.40831019  .00000000  00000+0  00000-0 0  9994
2 45180  65.0000   0.0000 0000000   0.0000 270.0000 15.80155680    10
CTC1_L_00019002-01
1 45181U 24045QL  26070.40831019  .00000000  00000+0  00000-0 0  9994
2 45181  65.0000  12.0000 0000000   0.0000  12.0000 15.80155680    18
CTC1_L_00019002-02
1 45182U 22785QR  26070.40831019  .00000000  00000+0  00000-0 0  9994
2 45182  65.0000  12.0000 0000000   0.0000 102.0000 15.80155680    19
CTC1_L_00019002-03
1 45183U 26165NR  26070.40831019  .00000000  00000+0  00000-0 0  9991
2 45183  65.0000  12.0000 0000000   0.0000 192.0000 15.80155680    19
CTC1_L_00019002-04
1 45184U 22525EM  26070.40831019  .00000000  00000+0  00000-0 0  9998
2 45184  65.0000  12.0000 0000000   0.0000 282.0000 15.80155680    10
CTC1_L_00019003-01
1 45185U 23013BD  26070.40831019  .00000000  00000+0  00000-0 0  9992
2 45185  65.0000  24.0000 0000000   0.0000  24.0000 15.80155680    18
CTC1_L_00019003-02
1 45186U 26277IJ  26070.40831019  .00000000  00000+0  00000-0 0  9998
2 45186  65.0000  24.0000 0000000   0.0000 114.0000 15.80155680    19
CTC1_L_00019003-03
1 45187U 26349QK  26070.40831019  .00000000  00000+0  00000-0 0  9999
2 45187  65.0000  24.0000 0000000   0.0000 204.0000 15.80155680    10
CTC1_L_00019003-04
1 45188U 24939VO  26070.40831019  .00000000  00000+0  00000-0 0  9993
2 45188  65.0000  24.0000 0000000   0.0000 294.0000 15.80155680    10
CTC1_L_00019004-01
1 45189U 25658GI  26070.40831019  .00000000  00000+0  00000-0 0  9993
2 45189  65.0000  36.0000 0000000   0.0000  36.0000 15.80155680    18
CTC1_L_00019004-02
1 45190U 24543QV  26070.40831019  .00000000  00000+0  00000-0 0  9997
2 45190  65.0000  36.0000 0000000   0.0000 126.0000 15.80155680    10
CTC1_L_00019004-03
1 45191U 26519MI  26070.40831019  .00000000  00000+0  00000-0 0  9993
2 45191  65.0000  36.0000 0000000   0.0000 216.0000 15.80155680    11
CTC1_L_00019004-04
1 45192U 23207WN  26070.40831019  .00000000  00000+0  00000-0 0  9995
2 45192  65.0000  36.0000 0000000   0.0000 306.0000 15.80155680    12
CTC1_L_00019005-01
1 45193U 26310NY  26070.40831019  .00000000  00000+0  00000-0 0  9994
2 45193  65.0000  48.0000 0000000   0.0000  48.0000 15.80155680    19
CTC1_L_00019005-02
1 45194U 25125FJ  26070.40831019  .00000000  00000+0  00000-0 0  9998
2 45194  65.0000  48.0000 0000000   0.0000 138.0000 15.80155680    10
CTC1_L_00019005-03
1 45195U 25264MG  26070.40831019  .00000000  00000+0  00000-0 0  9993
2 45195  65.0000  48.0000 0000000   0.0000 228.0000 15.80155680    11
CTC1_L_00019005-04
1 45196U 22829RB  26070.40831019  .00000000  00000+0  00000-0 0  9998
2 45196  65.0000  48.0000 0000000   0.0000 318.0000 15.80155680    12
CTC1_L_00019006-01
1 45197U 24646UY  26070.40831019  .00000000  00000+0  00000-0 0  9998
2 45197  65.0000  60.0000 0000000   0.0000  60.0000 15.80155680    11
CTC1_L_00019006-02
1 45198U 23347XR  26070.40831019  .00000000  00000+0  00000-0 0  9996
2 45198  65.0000  60.0000 0000000   0.0000 150.0000 15.80155680    12
CTC1_L_00019006-03
1 45199U 22588VJ  26070.40831019  .00000000  00000+0  00000-0 0  9993
2 45199  65.0000  60.0000 0000000   0.0000 240.0000 15.80155680    13
CTC1_L_00019006-04
1 45200U 25567C   26070.40831019  .00000000  00000+0  00000-0 0  9996
2 45200  65.0000  60.0000 0000000   0.0000 330.0000 15.80155680    16
CTC1_L_00019007-01
1 45201U 23718PM  26070.40831019  .00000000  00000+0  00000-0 0  9993
2 45201  65.0000  72.0000 0000000   0.0000  72.0000 15.80155680    13
CTC1_L_00019007-02
1 45202U 23103YD  26070.40831019  .00000000  00000+0  00000-0 0  9992
2 45202  65.0000  72.0000 0000000   0.0000 162.0000 15.80155680    14
CTC1_L_00019007-03
1 45203U 23610CO  26070.40831019  .00000000  00000+0  00000-0 0  9996
2 45203  65.0000  72.0000 0000000   0.0000 252.0000 15.80155680    15
CTC1_L_00019007-04
1 45204U 22215BG  26070.40831019  .00000000  00000+0  00000-0 0  9997
2 45204  65.0000  72.0000 0000000   0.0000 342.0000 15.80155680    16
CTC1_L_00019008-01
1 45205U 25795HB  26070.40831019  .00000000  00000+0  00000-0 0  9994
2 45205  65.0000  84.0000 0000000   0.0000  84.0000 15.80155680    13
CTC1_L_00019008-02
1 45206U 24529OZ  26070.40831019  .00000000  00000+0  00000-0 0  9999
2 45206  65.0000  84.0000 0000000   0.0000 174.0000 15.80155680    14
CTC1_L_00019008-03
1 45207U 25370RI  26070.40831019  .00000000  00000+0  00000-0 0  9995
2 45207  65.0000  84.0000 0000000   0.0000 264.0000 15.80155680    15
CTC1_L_00019008-04
1 45208U 26874BJ  26070.40831019  .00000000  00000+0  00000-0 0  9996
2 45208  65.0000  84.0000 0000000   0.0000 354.0000 15.80155680    16
CTC1_L_00019009-01
1 45209U 25447JI  26070.40831019  .00000000  00000+0  00000-0 0  9992
2 45209  65.0000  96.0000 0000000   0.0000  96.0000 15.80155680    13
CTC1_L_00019009-02
1 45210U 24157GK  26070.40831019  .00000000  00000+0  00000-0 0  9991
2 45210  65.0000  96.0000 0000000   0.0000 186.0000 15.80155680    15
CTC1_L_00019009-03
1 45211U 22636MJ  26070.40831019  .00000000  00000+0  00000-0 0  9992
2 45211  65.0000  96.0000 0000000   0.0000 276.0000 15.80155680    16
CTC1_L_00019009-04
1 45212U 26100BM  26070.40831019  .00000000  00000+0  00000-0 0  9993
2 45212  65.0000  96.0000 0000000   0.0000   6.0000 15.80155680    18
CTC1_L_00019010-01
1 45213U 25833NP  26070.40831019  .00000000  00000+0  00000-0 0  9996
2 45213  65.0000 108.0000 0000000   0.0000 108.0000 15.80155680    16
CTC1_L_00019010-02
1 45214U 22915GV  26070.40831019  .00000000  00000+0  00000-0 0  9995
2 45214  65.0000 108.0000 0000000   0.0000 198.0000 15.80155680    16
CTC1_L_00019010-03
1 45215U 23597QR  26070.40831019  .00000000  00000+0  00000-0 0  9993
2 45215  65.0000 108.0000 0000000   0.0000 288.0000 15.80155680    17
CTC1_L_00019010-04
1 45216U 23529VX  26070.40831019  .00000000  00000+0  00000-0 0  9999
2 45216  65.0000 108.0000 0000000   0.0000  18.0000 15.80155680    19
CTC1_L_00019011-01
1 45217U 26385ES  26070.40831019  .00000000  00000+0  00000-0 0  9993
2 45217  65.0000 120.0000 0000000   0.0000 120.0000 15.80155680    18
CTC1_L_00019011-02
1 45218U 24706HB  26070.40831019  .00000000  00000+0  00000-0 0  9999
2 45218  65.0000 120.0000 0000000   0.0000 210.0000 15.80155680    19
CTC1_L_00019011-03
1 45219U 22390BD  26070.40831019  .00000000  00000+0  00000-0 0  9997
2 45219  65.0000 120.0000 0000000   0.0000 300.0000 15.80155680    10
CTC1_L_00019011-04
1 45220U 26857TG  26070.40831019  .00000000  00000+0  00000-0 0  9991
2 45220  65.0000 120.0000 0000000   0.0000  30.0000 15.80155680    12
CTC1_L_00019012-01
1 45221U 26420SU  26070.40831019  .00000000  00000+0  00000-0 0  9998
2 45221  65.0000 132.0000 0000000   0.0000 132.0000 15.80155680    19
CTC1_L_00019012-02
1 45222U 25093JG  26070.40831019  .00000000  00000+0  00000-0 0  9994
2 45222  65.0000 132.0000 0000000   0.0000 222.0000 15.80155680    10
CTC1_L_00019012-03
1 45223U 23353KX  26070.40831019  .00000000  00000+0  00000-0 0  9992
2 45223  65.0000 132.0000 0000000   0.0000 312.0000 15.80155680    11
CTC1_L_00019012-04
1 45224U 25359DX  26070.40831019  .00000000  00000+0  00000-0 0  9991
2 45224  65.0000 132.0000 0000000   0.0000  42.0000 15.80155680    12
CTC1_L_00019013-01
1 45225U 24337EX  26070.40831019  .00000000  00000+0  00000-0 0  9997
2 45225  65.0000 144.0000 0000000   0.0000 144.0000 15.80155680    19
CTC1_L_00019013-02
1 45226U 26063VK  26070.40831019  .00000000  00000+0  00000-0 0  9996
2 45226  65.0000 144.0000 0000000   0.0000 234.0000 15.80155680    10
CTC1_L_00019013-03
1 45227U 24099GA  26070.40831019  .00000000  00000+0  00000-0 0  9994
2 45227  65.0000 144.0000 0000000   0.0000 324.0000 15.80155680    11
CTC1_L_00019013-04
1 45228U 25958KB  26070.40831019  .00000000  00000+0  00000-0 0  9990
2 45228  65.0000 144.0000 0000000   0.0000  54.0000 15.80155680    12
CTC1_L_00019014-01
1 45229U 23574XT  26070.40831019  .00000000  00000+0  00000-0 0  9993
2 45229  65.0000 156.0000 0000000   0.0000 156.0000 15.80155680    19
CTC1_L_00019014-02
1 45230U 24366YK  26070.40831019  .00000000  00000+0  00000-0 0  9995
2 45230  65.0000 156.0000 0000000   0.0000 246.0000 15.80155680    11
CTC1_L_00019014-03
1 45231U 23134SI  26070.40831019  .00000000  00000+0  00000-0 0  9998
2 45231  65.0000 156.0000 0000000   0.0000 336.0000 15.80155680    12
CTC1_L_00019014-04
1 45232U 26147PS  26070.40831019  .00000000  00000+0  00000-0 0  9996
2 45232  65.0000 156.0000 0000000   0.0000  66.0000 15.80155680    13
CTC1_L_00019015-01
1 45233U 24320R   26070.40831019  .00000000  00000+0  00000-0 0  9998
2 45233  65.0000 168.0000 0000000   0.0000 168.0000 15.80155680    10
CTC1_L_00019015-02
1 45234U 25382DM  26070.40831019  .00000000  00000+0  00000-0 0  9998
2 45234  65.0000 168.0000 0000000   0.0000 258.0000 15.80155680    11
CTC1_L_00019015-03
1 45235U 25982TV  26070.40831019  .00000000  00000+0  00000-0 0  9995
2 45235  65.0000 168.0000 0000000   0.0000 348.0000 15.80155680    12
CTC1_L_00019015-04
1 45236U 25714HX  26070.40831019  .00000000  00000+0  00000-0 0  9999
2 45236  65.0000 168.0000 0000000   0.0000  78.0000 15.80155680    13
CTC1_L_00019016-01
1 45237U 26163RK  26070.40831019  .00000000  00000+0  00000-0 0  9999
2 45237  65.0000 180.0000 0000000   0.0000 180.0000 15.80155680    12
CTC1_L_00019016-02
1 45238U 22680FQ  26070.40831019  .00000000  00000+0  00000-0 0  9990
2 45238  65.0000 180.0000 0000000   0.0000 270.0000 15.80155680    13
